      2.10          N: GNSS NAV DATA                        RINEX VERSION / TYPE
fic2rin                                 10/23/2018 00:19:40 PGM / RUN BY / DATE
                                                            END OF HEADER
29 18 10 22 14  0  0.0 3.518392331898e-04-7.617018127348e-12 0.000000000000e+00
    8.800000000000e+01 2.984375000000e+01 3.765513991629e-09-7.148414240146e-01
    1.434236764908e-06 7.187654264271e-04 1.261383295059e-05 5.153619506836e+03
    1.368000000000e+05 5.587935447693e-09-8.528432336011e-02 5.587935447693e-08
    9.851457718243e-01 1.547812500000e+02 1.660331416108e+00-7.605316791971e-09
    3.282279577262e-10 1.000000000000e+00 2.024000000000e+03 0.000000000000e+00
    2.400000000000e+00 0.000000000000e+00-1.024454832077e-08 8.800000000000e+01
    1.296060000000e+05 4.000000000000e+00
20 18 10 22 14  0  0.0 5.176491104066e-04 5.684341886081e-13 0.000000000000e+00
    7.300000000000e+01-7.771875000000e+01 5.640592096159e-09 2.679100050036e+00
   -3.926455974579e-06 4.407840198837e-03 5.705282092094e-06 5.153673370361e+03
    1.368000000000e+05 1.713633537292e-07 1.833237909786e+00 1.005828380585e-07
    9.288766321030e-01 2.510000000000e+02 2.140249862409e+00-8.730363654689e-09
   -5.164500836475e-10 1.000000000000e+00 2.024000000000e+03 0.000000000000e+00
    2.400000000000e+00 0.000000000000e+00-8.381903171539e-09 7.300000000000e+01
    1.296060000000e+05 4.000000000000e+00
28 18 10 22 14  0  0.0 7.509905844927e-04 1.818989403546e-12 0.000000000000e+00
    5.800000000000e+01-7.396875000000e+01 4.108028258723e-09-3.569231523562e-01
   -3.943219780922e-06 1.964167784899e-02 7.668510079384e-06 5.153688947678e+03
    1.368000000000e+05-3.371387720108e-07-1.106379849916e+00 1.024454832077e-07
    9.842875772656e-01 2.495312500000e+02-1.507203427107e+00-8.242129032043e-09
   -2.721541934574e-10 1.000000000000e+00 2.024000000000e+03 0.000000000000e+00
    4.850000000000e+00 0.000000000000e+00-1.117587089539e-08 5.800000000000e+01
    1.296060000000e+05 4.000000000000e+00
10 18 10 22 13 59 44.0 1.722704619169e-04-3.637978807092e-12 0.000000000000e+00
    1.000000000000e+00-7.684375000000e+01 4.814843414697e-09 8.710174935348e-01
   -3.900378942490e-06 3.910464467481e-03 6.986781954765e-06 5.153665220261e+03
    1.367840000000e+05 6.705522537231e-08 1.944352322284e+00 9.313225746155e-09
    9.615045899541e-01 2.428437500000e+02-2.817860502606e+00-8.349633510036e-09
   -6.318120317929e-10 1.000000000000e+00 2.024000000000e+03 0.000000000000e+00
    2.400000000000e+00 0.000000000000e+00 1.862645149231e-09 1.000000000000e+00
    1.359660000000e+05 4.000000000000e+00
10 18 10 22 15 59 44.0 1.722443848848e-04-3.637978807092e-12 0.000000000000e+00
    9.000000000000e+00-7.159375000000e+01 4.849844872649e-09 1.921394081776e+00
   -3.658235073090e-06 3.910601953976e-03 6.975606083870e-06 5.153663898468e+03
    1.439840000000e+05-8.381903171539e-08 1.944291418079e+00 1.676380634308e-07
    9.615006839629e-01 2.464375000000e+02-2.818048099906e+00-8.299988584983e-09
   -4.618049503155e-10 1.000000000000e+00 2.024000000000e+03 0.000000000000e+00
    2.400000000000e+00 0.000000000000e+00 1.862645149231e-09 9.000000000000e+00
    1.368060000000e+05 4.000000000000e+00
 1 18 10 22 16  0  0.0-1.038652844727e-04-5.002220859751e-12 0.000000000000e+00
    1.600000000000e+01 4.884375000000e+01 4.714124933654e-09-2.400401264702e+00
    2.356246113777e-06 8.134042960592e-03 4.658475518227e-06 5.153656759262e+03
    1.440000000000e+05 8.381903171539e-08 9.044688021618e-01-1.452863216400e-07
    9.727520000768e-01 2.960625000000e+02 6.999752197718e-01-8.203913154484e-09
    5.018066165455e-10 1.000000000000e+00 2.024000000000e+03 0.000000000000e+00
    2.400000000000e+00 0.000000000000e+00 5.587935447693e-09 1.600000000000e+01
    1.368060000000e+05 4.000000000000e+00
 2 18 10 22 16  0  0.0-3.731669858098e-05-1.068656274583e-11 0.000000000000e+00
    8.600000000000e+01 5.453125000000e+01 5.013065957176e-09-2.070963639583e+00
    2.995133399963e-06 1.827399514150e-02 4.217028617859e-06 5.153576272964e+03
    1.440000000000e+05 2.551823854446e-07 8.402487319381e-01 9.313225746155e-08
    9.518943475461e-01 2.879062500000e+02-1.821775417059e+00-8.168197381064e-09
    5.610948004220e-10 1.000000000000e+00 2.024000000000e+03 0.000000000000e+00
    2.400000000000e+00 0.000000000000e+00-2.048909664154e-08 8.600000000000e+01
    1.368060000000e+05 4.000000000000e+00
 5 18 10 22 16  0  0.0-7.557682693005e-07 3.410605131648e-13 0.000000000000e+00
    1.000000000000e+01-7.340625000000e+01 5.154500419918e-09 4.904616427704e-01
   -3.628432750702e-06 5.578446318395e-03 6.277114152908e-06 5.153560707092e+03
    1.440000000000e+05-2.048909664154e-08 1.923805304316e+00 2.793967723846e-08
    9.483078414909e-01 2.503437500000e+02 7.102320953776e-01-8.501425547069e-09
   -4.953777773300e-10 1.000000000000e+00 2.024000000000e+03 0.000000000000e+00
    2.400000000000e+00 0.000000000000e+00-1.117587089539e-08 1.000000000000e+01
    1.368060000000e+05 4.000000000000e+00
 6 18 10 22 16  0  0.0 3.457148559391e-04-5.798028723802e-12 0.000000000000e+00
    1.700000000000e+01 4.968750000000e+01 4.724839665680e-09-2.073585159522e+00
    2.682209014893e-06 1.013098284602e-03 4.827976226807e-06 5.153717769623e+03
    1.440000000000e+05-3.539025783539e-08 8.961576032127e-01 3.725290298462e-08
    9.724487488623e-01 2.928437500000e+02-1.184255565524e+00-8.207127574092e-09
    4.285892810353e-10 1.000000000000e+00 2.024000000000e+03 0.000000000000e+00
    2.400000000000e+00 0.000000000000e+00 4.656612873077e-09 1.700000000000e+01
    1.368060000000e+05 4.000000000000e+00
 3 18 10 22 16  0  0.0 1.519476063550e-04 4.433786671143e-12 0.000000000000e+00
    7.600000000000e+01-8.031250000000e+01 4.768055751518e-09 2.781752173407e+00
   -4.215165972710e-06 1.811792724766e-03 7.087364792824e-06 5.153654228210e+03
    1.440000000000e+05-2.048909664154e-08 1.947658081194e+00-2.235174179077e-08
    9.614410759028e-01 2.414062500000e+02 6.918541431192e-01-8.219985252523e-09
   -5.250218692682e-10 1.000000000000e+00 2.024000000000e+03 0.000000000000e+00
    2.400000000000e+00 0.000000000000e+00 2.328306436539e-09 7.600000000000e+01
    1.368060000000e+05 4.000000000000e+00
27 18 10 22 16  0  0.0-8.283648639917e-06-4.661160346586e-12 0.000000000000e+00
    1.000000000000e+01 1.484375000000e+01 3.847303112760e-09-1.978844988665e-01
    8.046627044678e-07 6.103015970439e-03 1.258775591850e-05 5.153704217911e+03
    1.440000000000e+05 8.195638656616e-08-1.510060936214e-01 6.146728992462e-08
    9.784153860595e-01 1.479375000000e+02 4.432951977329e-01-7.778538293057e-09
    2.378670509746e-10 1.000000000000e+00 2.024000000000e+03 0.000000000000e+00
    2.400000000000e+00 0.000000000000e+00 1.862645149231e-09 1.000000000000e+01
    1.368060000000e+05 4.000000000000e+00
14 18 10 22 16  0  0.0-9.650876745582e-05 3.410605131648e-13 0.000000000000e+00
    1.700000000000e+01 5.184375000000e+01 4.367681931484e-09-4.662181468057e-01
    2.682209014893e-06 1.001842378173e-02 1.224689185619e-05 5.153648475647e+03
    1.440000000000e+05-5.401670932770e-08 3.071554590349e+00 1.266598701477e-07
    9.612962967522e-01 1.459375000000e+02-1.944535388927e+00-8.122838348822e-09
    9.107522222000e-11 1.000000000000e+00 2.024000000000e+03 0.000000000000e+00
    2.400000000000e+00 0.000000000000e+00-9.778887033463e-09 1.700000000000e+01
    1.368060000000e+05 4.000000000000e+00
11 18 10 22 16  0  0.0-7.074740715325e-04 3.637978807092e-12 0.000000000000e+00
    1.000000000000e+01 8.912500000000e+01 5.766311618596e-09-3.052117671192e+00
    4.470348358154e-06 1.690279936884e-02 7.640570402145e-06 5.153664777756e+03
    1.440000000000e+05 2.533197402954e-07 4.678061253629e-01 1.508742570877e-07
    9.071864548372e-01 1.978125000000e+02 1.832773279689e+00-8.492853761449e-09
    6.085967790701e-10 1.000000000000e+00 2.024000000000e+03 0.000000000000e+00
    2.400000000000e+00 0.000000000000e+00-1.210719347000e-08 1.000000000000e+01
    1.368060000000e+05 4.000000000000e+00
 9 18 10 22 16  0  0.0 4.985695704818e-04-2.842170943040e-12 0.000000000000e+00
    1.100000000000e+01 2.600000000000e+01 4.379825294447e-09 2.592593441066e-01
    1.339241862297e-06 1.265264581889e-03 1.304782927036e-05 5.153814491272e+03
    1.440000000000e+05-7.450580596924e-09 2.980577707494e+00 1.676380634308e-08
    9.531026008461e-01 1.227812500000e+02 1.690375167208e+00-7.937830642508e-09
    1.607209803882e-11 1.000000000000e+00 2.024000000000e+03 0.000000000000e+00
    2.400000000000e+00 0.000000000000e+00 1.396983861923e-09 1.100000000000e+01
    1.368060000000e+05 4.000000000000e+00
 8 18 10 22 16  0  0.0-1.195110380650e-04-1.364242052659e-12 0.000000000000e+00
    6.500000000000e+01 1.031250000000e+01 4.008024093148e-09 1.849739235121e-01
    5.327165126801e-07 3.664728952572e-03 1.291744410992e-05 5.153648523331e+03
    1.440000000000e+05 4.656612873077e-08-1.606398173275e-01-4.097819328308e-08
    9.701810693072e-01 1.337500000000e+02-4.133442102683e-01-7.826754587173e-09
    2.257236880119e-10 1.000000000000e+00 2.024000000000e+03 0.000000000000e+00
    2.400000000000e+00 0.000000000000e+00 5.122274160385e-09 6.500000000000e+01
    1.368060000000e+05 4.000000000000e+00
13 18 10 22 16  0  0.0-8.644722402096e-05 9.094947017729e-13 0.000000000000e+00
    4.500000000000e+01 4.437500000000e+01 4.105170996850e-09-1.380361918186e+00
    2.209097146988e-06 3.510779002681e-03 1.154094934464e-05 5.153676010132e+03
    1.440000000000e+05-5.587935447693e-09 3.114442125816e+00 8.381903171539e-08
    9.687432695313e-01 1.608437500000e+02 1.435417210408e+00-7.801753545779e-09
    4.571618997710e-11 1.000000000000e+00 2.024000000000e+03 0.000000000000e+00
    2.400000000000e+00 0.000000000000e+00-1.117587089539e-08 4.500000000000e+01
    1.368060000000e+05 4.000000000000e+00
